{
  "type": "FeatureCollection",
  "features": [
    {
      "type": "Feature",
      "properties": {
        "norad_id": 32376,
        "name": "COSMO-SKYMED 2",
        "group": "resource",
        "lat": 27.09271982126467,
        "lon": 174.8016985485225,
        "alt_km": 620.9528959299187,
        "timestamp": "2025-12-23T16:57:12.001634+00:00",
        "meta_object_name": "COSMO-SKYMED 2",
        "meta_object_id": "2007-059A",
        "meta_epoch": "2025-12-23T07:06:31.381056",
        "meta_mean_motion": 14.82154959,
        "meta_eccentricity": 0.00013148,
        "meta_inclination": 97.8805,
        "meta_ra_of_asc_node": 178.461,
        "meta_arg_of_pericenter": 82.6947,
        "meta_mean_anomaly": 277.4415,
        "meta_ephemeris_type": 0,
        "meta_classification_type": "U",
        "meta_norad_cat_id": 32376,
        "meta_element_set_no": 999,
        "meta_rev_at_epoch": 97594,
        "meta_bstar": 7.159144e-05,
        "meta_mean_motion_dot": 5.18e-06,
        "meta_mean_motion_ddot": 0,
        "tle_line1": "1 32376U 07059A   25357.29619654  .00000518  00000+0  71591-4 0  9996",
        "tle_line2": "2 32376  97.8805 178.4610 0001314  82.6947 277.4415 14.82154959975944"
      },
      "geometry": {
        "type": "Point",
        "coordinates": [
          174.8016985485225,
          27.09271982126467
        ]
      }
    },
    {
      "type": "Feature",
      "properties": {
        "norad_id": 32382,
        "name": "RADARSAT-2",
        "group": "resource",
        "lat": 77.01742454651746,
        "lon": -38.76666268633794,
        "alt_km": 783.6975048270197,
        "timestamp": "2025-12-23T16:57:12.001644+00:00",
        "meta_object_name": "RADARSAT-2",
        "meta_object_id": "2007-061A",
        "meta_epoch": "2025-12-23T06:30:13.872960",
        "meta_mean_motion": 14.29985581,
        "meta_eccentricity": 0.00011325,
        "meta_inclination": 98.5791,
        "meta_ra_of_asc_node": 1.7078,
        "meta_arg_of_pericenter": 84.5857,
        "meta_mean_anomaly": 275.5455,
        "meta_ephemeris_type": 0,
        "meta_classification_type": "U",
        "meta_norad_cat_id": 32382,
        "meta_element_set_no": 999,
        "meta_rev_at_epoch": 94081,
        "meta_bstar": 0.00016597604,
        "meta_mean_motion_dot": 3.84e-06,
        "meta_mean_motion_ddot": 0,
        "tle_line1": "1 32382U 07061A   25357.27099390  .00000384  00000+0  16598-3 0  9999",
        "tle_line2": "2 32382  98.5791   1.7078 0001132  84.5857 275.5455 14.29985581940813"
      },
      "geometry": {
        "type": "Point",
        "coordinates": [
          -38.76666268633794,
          77.01742454651746
        ]
      }
    },
    {
      "type": "Feature",
      "properties": {
        "norad_id": 32783,
        "name": "CARTOSAT-2A",
        "group": "resource",
        "lat": 40.24149798279279,
        "lon": 40.53173026321396,
        "alt_km": 627.2328259751703,
        "timestamp": "2025-12-23T16:57:12.001655+00:00",
        "meta_object_name": "CARTOSAT-2A",
        "meta_object_id": "2008-021A",
        "meta_epoch": "2025-12-23T13:31:21.583200",
        "meta_mean_motion": 14.78951894,
        "meta_eccentricity": 0.0011057,
        "meta_inclination": 97.7918,
        "meta_ra_of_asc_node": 47.0479,
        "meta_arg_of_pericenter": 328.3066,
        "meta_mean_anomaly": 31.7479,
        "meta_ephemeris_type": 0,
        "meta_classification_type": "U",
        "meta_norad_cat_id": 32783,
        "meta_element_set_no": 999,
        "meta_rev_at_epoch": 95284,
        "meta_bstar": 0.00011216,
        "meta_mean_motion_dot": 7.78e-06,
        "meta_mean_motion_ddot": 0,
        "tle_line1": "1 32783U 08021A   25357.56344425  .00000778  00000+0  11216-3 0  9994",
        "tle_line2": "2 32783  97.7918  47.0479 0011057 328.3066  31.7479 14.78951894952844"
      },
      "geometry": {
        "type": "Point",
        "coordinates": [
          40.53173026321396,
          40.24149798279279
        ]
      }
    },
    {
      "type": "Feature",
      "properties": {
        "norad_id": 33320,
        "name": "HUANJING 1A (HJ-1A)",
        "group": "resource",
        "lat": 79.07404221756771,
        "lon": -58.61291031868417,
        "alt_km": 609.3904962678789,
        "timestamp": "2025-12-23T16:57:12.001665+00:00",
        "meta_object_name": "HUANJING 1A (HJ-1A)",
        "meta_object_id": "2008-041A",
        "meta_epoch": "2025-12-23T06:52:19.299072",
        "meta_mean_motion": 14.83426962,
        "meta_eccentricity": 0.00193784,
        "meta_inclination": 97.6543,
        "meta_ra_of_asc_node": 345.1446,
        "meta_arg_of_pericenter": 1.0541,
        "meta_mean_anomaly": 359.0711,
        "meta_ephemeris_type": 0,
        "meta_classification_type": "U",
        "meta_norad_cat_id": 33320,
        "meta_element_set_no": 999,
        "meta_rev_at_epoch": 93232,
        "meta_bstar": 0.00022618692,
        "meta_mean_motion_dot": 1.812e-05,
        "meta_mean_motion_ddot": 0,
        "tle_line1": "1 33320U 08041A   25357.28633448  .00001812  00000+0  22619-3 0  9998",
        "tle_line2": "2 33320  97.6543 345.1446 0019378   1.0541 359.0711 14.83426962932323"
      },
      "geometry": {
        "type": "Point",
        "coordinates": [
          -58.61291031868417,
          79.07404221756771
        ]
      }
    },
    {
      "type": "Feature",
      "properties": {
        "norad_id": 33321,
        "name": "HUANJING 1B (HJ-1B)",
        "group": "resource",
        "lat": -77.47296252173824,
        "lon": 26.380857804292344,
        "alt_km": 641.2508087877777,
        "timestamp": "2025-12-23T16:57:12.001676+00:00",
        "meta_object_name": "HUANJING 1B (HJ-1B)",
        "meta_object_id": "2008-041B",
        "meta_epoch": "2025-12-23T05:58:37.133760",
        "meta_mean_motion": 14.82846017,
        "meta_eccentricity": 0.00378657,
        "meta_inclination": 97.64,
        "meta_ra_of_asc_node": 348.7781,
        "meta_arg_of_pericenter": 42.4143,
        "meta_mean_anomaly": 317.9987,
        "meta_ephemeris_type": 0,
        "meta_classification_type": "U",
        "meta_norad_cat_id": 33321,
        "meta_element_set_no": 999,
        "meta_rev_at_epoch": 93233,
        "meta_bstar": 0.00012646339,
        "meta_mean_motion_dot": 9.85e-06,
        "meta_mean_motion_ddot": 0,
        "tle_line1": "1 33321U 08041B   25357.24904090  .00000985  00000+0  12646-3 0  9998",
        "tle_line2": "2 33321  97.6400 348.7781 0037865  42.4143 317.9987 14.82846017932330"
      },
      "geometry": {
        "type": "Point",
        "coordinates": [
          26.380857804292344,
          -77.47296252173824
        ]
      }
    },
    {
      "type": "Feature",
      "properties": {
        "norad_id": 33331,
        "name": "GEOEYE 1",
        "group": "resource",
        "lat": -81.25123254436873,
        "lon": 137.00250551862274,
        "alt_km": 683.6675541419218,
        "timestamp": "2025-12-23T16:57:12.001693+00:00",
        "meta_object_name": "GEOEYE 1",
        "meta_object_id": "2008-042A",
        "meta_epoch": "2025-12-23T04:13:57.785664",
        "meta_mean_motion": 14.64713746,
        "meta_eccentricity": 0.00029135,
        "meta_inclination": 98.1239,
        "meta_ra_of_asc_node": 68.3251,
        "meta_arg_of_pericenter": 239.3644,
        "meta_mean_anomaly": 120.7272,
        "meta_ephemeris_type": 0,
        "meta_classification_type": "U",
        "meta_norad_cat_id": 33331,
        "meta_element_set_no": 999,
        "meta_rev_at_epoch": 92438,
        "meta_bstar": 0.00011627381,
        "meta_mean_motion_dot": 5.71e-06,
        "meta_mean_motion_ddot": 0,
        "tle_line1": "1 33331U 08042A   25357.17636326  .00000571  00000+0  11627-3 0  9995",
        "tle_line2": "2 33331  98.1239  68.3251 0002913 239.3644 120.7272 14.64713746924388"
      },
      "geometry": {
        "type": "Point",
        "coordinates": [
          137.00250551862274,
          -81.25123254436873
        ]
      }
    },
    {
      "type": "Feature",
      "properties": {
        "norad_id": 33396,
        "name": "THEOS",
        "group": "resource",
        "lat": 9.050007747285672,
        "lon": -123.14924808615896,
        "alt_km": 826.5120741488181,
        "timestamp": "2025-12-23T16:57:12.001704+00:00",
        "meta_object_name": "THEOS",
        "meta_object_id": "2008-049A",
        "meta_epoch": "2025-12-23T07:41:49.764768",
        "meta_mean_motion": 14.20098022,
        "meta_eccentricity": 0.00012271,
        "meta_inclination": 98.5851,
        "meta_ra_of_asc_node": 55.0978,
        "meta_arg_of_pericenter": 93.2912,
        "meta_mean_anomaly": 266.8405,
        "meta_ephemeris_type": 0,
        "meta_classification_type": "U",
        "meta_norad_cat_id": 33396,
        "meta_element_set_no": 999,
        "meta_rev_at_epoch": 89300,
        "meta_bstar": -1.406822e-06,
        "meta_mean_motion_dot": -4.6e-07,
        "meta_mean_motion_ddot": 0,
        "tle_line1": "1 33396U 08049A   25357.32071487 -.00000046  00000+0 -14068-5 0  9994",
        "tle_line2": "2 33396  98.5851  55.0978 0001227  93.2912 266.8405 14.20098022893003"
      },
      "geometry": {
        "type": "Point",
        "coordinates": [
          -123.14924808615896,
          9.050007747285672
        ]
      }
    }
  ]
}